{
  "norad_id": 68513,
  "name": "STARLINK-36250",
  "history": [
    {
      "epoch": "2026-04-07T02:55:41.539584Z",
      "apogee_km": 298.238304466473,
      "perigee_km": 297.05001542000355,
      "latitude_deg": 1.3959291664714207e-05,
      "longitude_deg": 127.57798528581498,
      "height_km": 298.1073733380579,
      "semi_major_axis_km": 6675.781159943238,
      "eccentricity": 8.9e-05,
      "inclination_deg": 53.1615,
      "raan_deg": 6.9045,
      "arg_perigee_deg": 39.2971,
      "mean_anomaly_deg": 320.8121,
      "mean_motion_rev_day": 15.91657517
    }
  ]
}