{"fetched_at":"2026-04-08T17:04:03Z","count":12288,"tles":[{"name":"STARLINK-36250","line1":"1 68513U 26068F   26097.12200858 -.00627656  13254-3 -18708-2 0  9993","line2":"2 68513  53.1615   6.9045 0000889  39.2971 320.8121 15.91657517  1168","category":"Starlink"}]}